     2              NAVIGATION DATA                         RINEX VERSION / TYPE
CCRINEXN V1.6.0 UX  CDDIS               20-SEP-17 17:31     PGM / RUN BY / DATE 
IGS BROADCAST EPHEMERIS FILE                                COMMENT             
    0.8382D-08  0.1490D-07 -0.5960D-07 -0.5960D-07          ION ALPHA           
    0.8397D+05  0.1638D+05 -0.1311D+06 -0.6554D+05          ION BETA            
   -0.279396772385D-08-0.355271367880D-14   405504     1967 DELTA-UTC: A0,A1,T,W
    18                                                      LEAP SECONDS        
                                                            END OF HEADER       
26 17  9 19  2  0  0.0-0.422097742557D-03 0.108002495835D-10 0.000000000000D+00
    0.330000000000D+02 0.300000000000D+01 0.428410702168D-08-0.103802178717D+01
    0.169500708580D-06 0.190152088180D-02 0.127367675304D-04 0.515377124786D+04
    0.180000000000D+06 0.149011611938D-07-0.351351470856D+00-0.484287738800D-07
    0.958327450802D+00 0.136000000000D+03-0.794137472156D-02-0.783496921506D-08
   -0.386444668400D-09 0.100000000000D+01 0.196700000000D+04 0.000000000000D+00
    0.200000000000D+01 0.000000000000D+00 0.745058059692D-08 0.330000000000D+02
    0.172986000000D+06 0.400000000000D+01 0.000000000000D+00 0.000000000000D+00
27 17  9 19  2  0  0.0 0.326746143401D-03 0.500222085975D-11 0.000000000000D+00
    0.340000000000D+02 0.107906250000D+03 0.417410243955D-08-0.285330152904D+01
    0.558048486710D-05 0.492134643719D-02 0.640191137791D-05 0.515367046165D+04
    0.180000000000D+06 0.484287738800D-07 0.705045061854D+00 0.149011611938D-07
    0.975771183575D+00 0.264375000000D+03 0.393714234201D+00-0.802712007606D-08
    0.492520515456D-09 0.100000000000D+01 0.196700000000D+04 0.000000000000D+00
    0.200000000000D+01 0.000000000000D+00 0.139698386192D-08 0.340000000000D+02
    0.172800000000D+06 0.400000000000D+01 0.000000000000D+00 0.000000000000D+00
29 17  9 19  2  0  0.0 0.561324879527D-03-0.454747350886D-11 0.000000000000D+00
    0.980000000000D+02 0.945000000000D+02 0.409267047615D-08-0.160019134541D+01
    0.492110848427D-05 0.499775167555D-03 0.628083944321D-05 0.515356811905D+04
    0.180000000000D+06-0.558793544769D-08 0.767937251578D+00-0.372529029846D-08
    0.982036782711D+00 0.271718750000D+03 0.902854003928D+00-0.802819154926D-08
    0.393230665350D-09 0.100000000000D+01 0.196700000000D+04 0.000000000000D+00
    0.290000000000D+01 0.000000000000D+00-0.102445483208D-07 0.980000000000D+02
    0.179550000000D+06 0.400000000000D+01 0.000000000000D+00 0.000000000000D+00
30 17  9 19  2  0  0.0 0.139732379466D-03-0.216004991671D-11 0.000000000000D+00
    0.270000000000D+02-0.490937500000D+02 0.539522473277D-08 0.553609124865D+00
   -0.263564288616D-05 0.305956788361D-02 0.445172190666D-05 0.515362019730D+04
    0.180000000000D+06 0.167638063431D-07-0.132683272601D+01-0.186264514923D-08
    0.946420415306D+00 0.282218750000D+03-0.305727299743D+01-0.864714590262D-08
   -0.511092717635D-09 0.100000000000D+01 0.196700000000D+04 0.000000000000D+00
    0.200000000000D+01 0.000000000000D+00 0.372529029846D-08 0.270000000000D+02
    0.172800000000D+06 0.400000000000D+01 0.000000000000D+00 0.000000000000D+00
31 17  9 19  2  0  0.0 0.174372456968D-03-0.250111042988D-11 0.000000000000D+00
    0.990000000000D+02-0.489687500000D+02 0.493163399378D-08 0.366064301305D+00
   -0.267475843430D-05 0.851324282121D-02 0.466965138912D-05 0.515377572823D+04
    0.180000000000D+06 0.838190317154D-07-0.135266143269D+01-0.242143869400D-07
    0.965431637006D+00 0.290218750000D+03-0.241529024219D+00-0.843570852398D-08
   -0.476448417418D-09 0.100000000000D+01 0.196700000000D+04 0.000000000000D+00
    0.200000000000D+01 0.000000000000D+00-0.135041773319D-07 0.990000000000D+02
    0.172818000000D+06 0.400000000000D+01 0.000000000000D+00 0.000000000000D+00
32 17  9 19  2  0  0.0-0.501940492541D-03-0.557065504836D-11 0.000000000000D+00
    0.320000000000D+02 0.761250000000D+02 0.486234519315D-08-0.226982521119D+01
    0.397115945816D-05 0.141596456524D-02 0.764429569244D-05 0.515376107788D+04
    0.180000000000D+06 0.372529029846D-07-0.243923251016D+01-0.558793544769D-08
    0.957818584989D+00 0.230781250000D+03-0.255591674918D+01-0.824784329723D-08
    0.593596172216D-09 0.100000000000D+01 0.196700000000D+04 0.000000000000D+00
    0.200000000000D+01 0.000000000000D+00 0.931322574616D-09 0.320000000000D+02
    0.178080000000D+06 0.000000000000D+00 0.000000000000D+00 0.000000000000D+00
 2 17  9 19  3 59 44.0 0.326864887029D-03-0.909494701773D-11 0.000000000000D+00
    0.600000000000D+01-0.583125000000D+02 0.501699469225D-08 0.265493512740D+01
   -0.308081507683D-05 0.170692431275D-01 0.183284282684D-05 0.515358222198D+04
    0.187184000000D+06 0.134110450745D-06 0.170664538952D+01-0.126659870148D-06
    0.947186260235D+00 0.332968750000D+03-0.195440757267D+01-0.838606359892D-08
   -0.231438211759D-09 0.100000000000D+01 0.196700000000D+04 0.000000000000D+00
    0.200000000000D+01 0.000000000000D+00-0.204890966415D-07 0.600000000000D+01
    0.180000000000D+06 0.400000000000D+01 0.000000000000D+00 0.000000000000D+00
22 17  9 19  3 59 44.0-0.126662198454D-03-0.127329258248D-10 0.000000000000D+00
    0.400000000000D+01-0.596250000000D+02 0.496949271360D-08-0.246950599791D+01
   -0.327080488205D-05 0.726011767983D-02 0.117979943752D-04 0.515373249054D+04
    0.187184000000D+06 0.100582838059D-06 0.275495919305D+01 0.167638063431D-07
    0.924475987267D+00 0.126656250000D+03-0.167535256824D+01-0.811926677148D-08
   -0.532165023952D-10 0.100000000000D+01 0.196700000000D+04 0.000000000000D+00
    0.200000000000D+01 0.000000000000D+00-0.176951289177D-07 0.400000000000D+01
    0.184500000000D+06 0.400000000000D+01 0.000000000000D+00 0.000000000000D+00
29 17  9 19  3 59 44.0 0.561289023608D-03-0.466116034659D-11 0.000000000000D+00
    0.100000000000D+02 0.989687500000D+02 0.419910348094D-08-0.555723560826D+00
    0.507570803165D-05 0.498824985698D-03 0.680983066559D-05 0.515356440353D+04
    0.187184000000D+06-0.167638063431D-07 0.767879549700D+00 0.186264514923D-08
    0.982039537386D+00 0.258406250000D+03 0.906296210669D+00-0.804069206996D-08
    0.391444876679D-09 0.100000000000D+01 0.196700000000D+04 0.000000000000D+00
    0.200000000000D+01 0.000000000000D+00-0.102445483208D-07 0.100000000000D+02
    0.184950000000D+06 0.400000000000D+01 0.000000000000D+00 0.000000000000D+00
31 17  9 19  3 59 44.0 0.174352899194D-03-0.250111042988D-11 0.000000000000D+00
    0.250000000000D+02-0.450625000000D+02 0.497449292188D-08 0.141380483551D+01
   -0.216066837311D-05 0.851387670264D-02 0.435113906860D-05 0.515377708626D+04
    0.187184000000D+06 0.949949026108D-07-0.135272181317D+01 0.204890966415D-07
    0.965428262054D+00 0.295062500000D+03-0.241482338114D+00-0.840749306298D-08
   -0.486448833975D-09 0.100000000000D+01 0.196700000000D+04 0.000000000000D+00
    0.200000000000D+01 0.000000000000D+00-0.135041773319D-07 0.250000000000D+02
    0.180456000000D+06 0.400000000000D+01 0.000000000000D+00 0.000000000000D+00
 1 17  9 19  4  0  0.0-0.212993472815D-05-0.454747350886D-12 0.000000000000D+00
    0.380000000000D+02-0.648125000000D+02 0.462019244956D-08 0.225806005535D+01
   -0.342354178429D-05 0.705537362956D-02 0.332109630108D-05 0.515367701531D+04
    0.187200000000D+06-0.139698386192D-06 0.176248489215D+01-0.856816768646D-07
    0.968225529657D+00 0.319843750000D+03 0.623949630327D+00-0.837642034010D-08
   -0.281797452281D-09 0.100000000000D+01 0.196700000000D+04 0.000000000000D+00
    0.200000000000D+01 0.000000000000D+00 0.558793544769D-08 0.380000000000D+02
    0.180000000000D+06 0.400000000000D+01 0.000000000000D+00 0.000000000000D+00
 3 17  9 19  4  0  0.0-0.661970116198D-04 0.432009983342D-11 0.000000000000D+00
    0.400000000000D+02-0.548125000000D+02 0.416588781166D-08 0.132015126900D+01
   -0.308081507683D-05 0.996109563857D-03 0.127442181110D-04 0.515366522407D+04
    0.187200000000D+06-0.167638063431D-07 0.280516538290D+01 0.372529029846D-08
    0.960636231041D+00 0.132406250000D+03 0.435716227318D+00-0.784782689349D-08
   -0.725030200418D-10 0.100000000000D+01 0.196700000000D+04 0.000000000000D+00
    0.200000000000D+01 0.000000000000D+00 0.232830643654D-08 0.400000000000D+02
    0.180060000000D+06 0.400000000000D+01 0.000000000000D+00 0.000000000000D+00
 4 17  9 19  4  0  0.0 0.292602926493D-04 0.727595761418D-11 0.000000000000D+00
    0.340000000000D+02 0.106000000000D+03 0.452804575414D-08-0.159397397137D+01
    0.552088022232D-05 0.123359195422D-01 0.746175646782D-05 0.515366658020D+04
    0.187200000000D+06 0.558793544769D-07 0.615327931404D+00-0.180676579475D-06
    0.957101519600D+00 0.235937500000D+03 0.439018690273D+00-0.808926552181D-08
    0.455018953366D-09 0.100000000000D+01 0.196700000000D+04 0.000000000000D+00
    0.200000000000D+01 0.630000000000D+02-0.558793544769D-08 0.340000000000D+02
    0.180018000000D+06 0.400000000000D+01 0.000000000000D+00 0.000000000000D+00
 5 17  9 19  4  0  0.0-0.289310701191D-04 0.136424205266D-11 0.000000000000D+00
    0.690000000000D+02-0.764375000000D+02 0.444518515980D-08-0.109627067783D+01
   -0.387616455555D-05 0.520677375607D-02 0.122748315334D-04 0.515356754684D+04
    0.187200000000D+06 0.137835741043D-06 0.278678916713D+01-0.279396772385D-07
    0.947559921697D+00 0.129375000000D+03 0.583792104804D+00-0.802640576059D-08
   -0.675028117631D-10 0.100000000000D+01 0.196700000000D+04 0.000000000000D+00
    0.200000000000D+01 0.000000000000D+00-0.107102096081D-07 0.690000000000D+02
    0.181200000000D+06 0.400000000000D+01 0.000000000000D+00 0.000000000000D+00
